start=new Date('2021-11-05T00:00:00.000Z').valueOf();
sats=[{"REF_FRAME":"TEME","TIME_SYSTEM":"UTC","CLASSIFICATION_TYPE":"U","RA_OF_ASC_NODE":"225.2700","BSTAR":"0.00024796000000","EPHEMERIS_TYPE":"0","REV_AT_EPOCH":"10134","CENTER_NAME":"EARTH","TLE_LINE1":"1 44955U 20001AT  21308.95488204  .00003414  00000-0  24796-3 0  9997","GP_ID":"188952636","OBJECT_TYPE":"PAYLOAD","FILE":"3202404","OBJECT_ID":"2020-001AT","MEAN_ELEMENT_THEORY":"SGP4","DECAY_DATE":null,"ECCENTRICITY":"0.00015040","LAUNCH_DATE":"2020-01-07","MEAN_MOTION":"15.06399561","APOAPSIS":"548.256","ELEMENT_SET_NO":"999","MEAN_MOTION_DDOT":"0.0000000000000","OBJECT_NAME":"STARLINK-1069","RCS_SIZE":"LARGE","EPOCH":"2021-11-04T22:55:01.808256","ARG_OF_PERICENTER":"70.5704","SEMIMAJOR_AXIS":"6925.350","TLE_LINE2":"2 44955  53.0548 225.2700 0001504  70.5704 289.5447 15.06399561101348","SITE":"AFETR","PERIAPSIS":"546.173","INCLINATION":"53.0548","PERIOD":"95.592","COUNTRY_CODE":"US","MEAN_MOTION_DOT":"0.00003414","MEAN_ANOMALY":"289.5447","NORAD_CAT_ID":"44955"},{"RCS_SIZE":"LARGE","MEAN_MOTION_DDOT":"0.0000000000000","ELEMENT_SET_NO":"999","OBJECT_NAME":"STARLINK-1070","SEMIMAJOR_AXIS":"6925.369","TLE_LINE2":"2 44956  53.0543 225.2843 0001586  73.9692 286.1472 15.06393300101408","ARG_OF_PERICENTER":"73.9692","EPOCH":"2021-11-04T22:49:44.056704","PERIAPSIS":"546.136","SITE":"AFETR","LAUNCH_DATE":"2020-01-07","MEAN_MOTION":"15.06393300","APOAPSIS":"548.332","COUNTRY_CODE":"US","MEAN_MOTION_DOT":"0.00004779","NORAD_CAT_ID":"44956","MEAN_ANOMALY":"286.1472","INCLINATION":"53.0543","PERIOD":"95.593","EPHEMERIS_TYPE":"0","REV_AT_EPOCH":"10140","CENTER_NAME":"EARTH","TLE_LINE1":"1 44956U 20001AU  21308.95120436  .00004779  00000-0  33954-3 0  9999","REF_FRAME":"TEME","TIME_SYSTEM":"UTC","CLASSIFICATION_TYPE":"U","BSTAR":"0.00033954000000","RA_OF_ASC_NODE":"225.2843","OBJECT_ID":"2020-001AU","ECCENTRICITY":"0.00015860","DECAY_DATE":null,"MEAN_ELEMENT_THEORY":"SGP4","OBJECT_TYPE":"PAYLOAD","GP_ID":"188953381","FILE":"3202404"},{"PERIAPSIS":"546.180","SITE":"AFETR","SEMIMAJOR_AXIS":"6925.357","TLE_LINE2":"2 44957  53.0541 225.4661 0001505  74.5483 285.5673 15.06397223101395","EPOCH":"2021-11-04T21:51:20.001024","ARG_OF_PERICENTER":"74.5483","RCS_SIZE":"LARGE","OBJECT_NAME":"STARLINK-1074","MEAN_MOTION_DDOT":"0.0000000000000","ELEMENT_SET_NO":"999","APOAPSIS":"548.264","MEAN_MOTION":"15.06397223","LAUNCH_DATE":"2020-01-07","NORAD_CAT_ID":"44957","MEAN_ANOMALY":"285.5673","MEAN_MOTION_DOT":"0.00001612","COUNTRY_CODE":"US","PERIOD":"95.592","INCLINATION":"53.0541","TLE_LINE1":"1 44957U 20001AV  21308.91064816  .00001612  00000-0  12712-3 0  9997","CENTER_NAME":"EARTH","REV_AT_EPOCH":"10139","EPHEMERIS_TYPE":"0","BSTAR":"0.00012712000000","RA_OF_ASC_NODE":"225.4661","CLASSIFICATION_TYPE":"U","TIME_SYSTEM":"UTC","REF_FRAME":"TEME","ECCENTRICITY":"0.00015050","DECAY_DATE":null,"MEAN_ELEMENT_THEORY":"SGP4","OBJECT_ID":"2020-001AV","FILE":"3202404","OBJECT_TYPE":"PAYLOAD","GP_ID":"188952129"},{"COUNTRY_CODE":"US","MEAN_MOTION_DOT":"0.00003535","MEAN_ANOMALY":"289.9040","NORAD_CAT_ID":"44959","INCLINATION":"53.0553","PERIOD":"95.592","MEAN_MOTION_DDOT":"0.0000000000000","ELEMENT_SET_NO":"999","OBJECT_NAME":"STARLINK-1076","RCS_SIZE":"LARGE","EPOCH":"2021-11-04T22:12:32.584896","ARG_OF_PERICENTER":"70.2122","SEMIMAJOR_AXIS":"6925.319","TLE_LINE2":"2 44959  53.0553 225.4009 0001604  70.2122 289.9040 15.06409657101390","SITE":"AFETR","PERIAPSIS":"546.073","LAUNCH_DATE":"2020-01-07","MEAN_MOTION":"15.06409657","APOAPSIS":"548.295","OBJECT_ID":"2020-001AX","MEAN_ELEMENT_THEORY":"SGP4","DECAY_DATE":null,"ECCENTRICITY":"0.00016040","GP_ID":"188952379","OBJECT_TYPE":"PAYLOAD","FILE":"3202404","EPHEMERIS_TYPE":"0","CENTER_NAME":"EARTH","REV_AT_EPOCH":"10139","TLE_LINE1":"1 44959U 20001AX  21308.92537714  .00003535  00000-0  25601-3 0  9999","REF_FRAME":"TEME","TIME_SYSTEM":"UTC","CLASSIFICATION_TYPE":"U","RA_OF_ASC_NODE":"225.4009","BSTAR":"0.00025601000000"},{"SEMIMAJOR_AXIS":"6925.340","TLE_LINE2":"2 44961  53.0540 225.3615 0001842  62.6998 297.4178 15.06402753101409","ARG_OF_PERICENTER":"62.6998","EPOCH":"2021-11-04T22:23:11.204448","RCS_SIZE":"LARGE","ELEMENT_SET_NO":"999","MEAN_MOTION_DDOT":"0.0000000000000","OBJECT_NAME":"STARLINK-1080","PERIAPSIS":"545.929","SITE":"AFETR","MEAN_MOTION":"15.06402753","LAUNCH_DATE":"2020-01-07","APOAPSIS":"548.481","COUNTRY_CODE":"US","NORAD_CAT_ID":"44961","MEAN_ANOMALY":"297.4178","MEAN_MOTION_DOT":"0.00004356","INCLINATION":"53.0540","PERIOD":"95.592","REV_AT_EPOCH":"10140","CENTER_NAME":"EARTH","EPHEMERIS_TYPE":"0","TLE_LINE1":"1 44961U 20001AZ  21308.93276857  .00004356  00000-0  31111-3 0  9996","TIME_SYSTEM":"UTC","REF_FRAME":"TEME","BSTAR":"0.00031111000000","RA_OF_ASC_NODE":"225.3615","CLASSIFICATION_TYPE":"U","ECCENTRICITY":"0.00018420","DECAY_DATE":null,"MEAN_ELEMENT_THEORY":"SGP4","OBJECT_ID":"2020-001AZ","OBJECT_TYPE":"PAYLOAD","GP_ID":"188953130","FILE":"3202404"},{"OBJECT_NAME":"STARLINK-1085","MEAN_MOTION_DDOT":"0.0000000000000","ELEMENT_SET_NO":"999","RCS_SIZE":"LARGE","EPOCH":"2021-11-04T23:01:24.386592","ARG_OF_PERICENTER":"89.6425","TLE_LINE2":"2 44963  52.9997 221.4224 0002453  89.6425 270.4845 15.08467207102175","SEMIMAJOR_AXIS":"6919.020","SITE":"AFETR","PERIAPSIS":"539.188","LAUNCH_DATE":"2020-01-07","MEAN_MOTION":"15.08467207","APOAPSIS":"542.582","COUNTRY_CODE":"US","MEAN_MOTION_DOT":"0.00018349","MEAN_ANOMALY":"270.4845","NORAD_CAT_ID":"44963","INCLINATION":"52.9997","PERIOD":"95.461","EPHEMERIS_TYPE":"0","REV_AT_EPOCH":"10217","CENTER_NAME":"EARTH","TLE_LINE1":"1 44963U 20001BB  21308.95931003  .00018349  00000-0  11797-2 0  9995","TIME_SYSTEM":"UTC","REF_FRAME":"TEME","CLASSIFICATION_TYPE":"U","RA_OF_ASC_NODE":"221.4224","BSTAR":"0.00117970000000","OBJECT_ID":"2020-001BB","DECAY_DATE":null,"MEAN_ELEMENT_THEORY":"SGP4","ECCENTRICITY":"0.00024530","GP_ID":"188952888","OBJECT_TYPE":"PAYLOAD","FILE":"3202404"},{"REV_AT_EPOCH":"10133","CENTER_NAME":"EARTH","EPHEMERIS_TYPE":"0","TLE_LINE1":"1 44964U 20001BC  21308.49782397  .00006040  00000-0  42388-3 0  9991","TIME_SYSTEM":"UTC","REF_FRAME":"TEME","RA_OF_ASC_NODE":"227.3189","BSTAR":"0.00042388000000","CLASSIFICATION_TYPE":"U","DECAY_DATE":null,"MEAN_ELEMENT_THEORY":"SGP4","ECCENTRICITY":"0.00016060","OBJECT_ID":"2020-001BC","GP_ID":"188918509","OBJECT_TYPE":"PAYLOAD","FILE":"3201730","ARG_OF_PERICENTER":"70.5801","EPOCH":"2021-11-04T11:56:51.991008","SEMIMAJOR_AXIS":"6925.306","TLE_LINE2":"2 44964  53.0534 227.3189 0001606  70.5801 289.5361 15.06413887101330","ELEMENT_SET_NO":"999","MEAN_MOTION_DDOT":"0.0000000000000","OBJECT_NAME":"STARLINK-1086","RCS_SIZE":"LARGE","SITE":"AFETR","PERIAPSIS":"546.059","MEAN_MOTION":"15.06413887","LAUNCH_DATE":"2020-01-07","APOAPSIS":"548.283","COUNTRY_CODE":"US","MEAN_ANOMALY":"289.5361","NORAD_CAT_ID":"44964","MEAN_MOTION_DOT":"0.00006040","INCLINATION":"53.0534","PERIOD":"95.591"},{"EPHEMERIS_TYPE":"0","CENTER_NAME":"EARTH","REV_AT_EPOCH":"10139","TLE_LINE1":"1 44966U 20001BE  21308.91801745  .00003640  00000-0  26309-3 0  9997","REF_FRAME":"TEME","TIME_SYSTEM":"UTC","CLASSIFICATION_TYPE":"U","BSTAR":"0.00026309000000","RA_OF_ASC_NODE":"225.4257","OBJECT_ID":"2020-001BE","ECCENTRICITY":"0.00013630","DECAY_DATE":null,"MEAN_ELEMENT_THEORY":"SGP4","OBJECT_TYPE":"PAYLOAD","GP_ID":"188951886","FILE":"3202404","RCS_SIZE":"LARGE","MEAN_MOTION_DDOT":"0.0000000000000","OBJECT_NAME":"STARLINK-1088","ELEMENT_SET_NO":"999","TLE_LINE2":"2 44966  53.0536 225.4257 0001363  79.8652 280.2490 15.06405946101399","SEMIMAJOR_AXIS":"6925.330","ARG_OF_PERICENTER":"79.8652","EPOCH":"2021-11-04T22:01:56.707680","PERIAPSIS":"546.251","SITE":"AFETR","LAUNCH_DATE":"2020-01-07","MEAN_MOTION":"15.06405946","APOAPSIS":"548.139","COUNTRY_CODE":"US","MEAN_MOTION_DOT":"0.00003640","NORAD_CAT_ID":"44966","MEAN_ANOMALY":"280.2490","INCLINATION":"53.0536","PERIOD":"95.592"},{"FILE":"3202404","OBJECT_TYPE":"PAYLOAD","GP_ID":"188952637","ECCENTRICITY":"0.00015960","DECAY_DATE":null,"MEAN_ELEMENT_THEORY":"SGP4","OBJECT_ID":"2020-001BF","BSTAR":"0.00013639000000","RA_OF_ASC_NODE":"225.3316","CLASSIFICATION_TYPE":"U","REF_FRAME":"TEME","TIME_SYSTEM":"UTC","TLE_LINE1":"1 44967U 20001BF  21308.94013147  .00001751  00000-0  13639-3 0  9995","CENTER_NAME":"EARTH","REV_AT_EPOCH":"10140","EPHEMERIS_TYPE":"0","PERIOD":"95.592","INCLINATION":"53.0543","NORAD_CAT_ID":"44967","MEAN_ANOMALY":"287.9339","MEAN_MOTION_DOT":"0.00001751","COUNTRY_CODE":"US","APOAPSIS":"548.316","MEAN_MOTION":"15.06400846","LAUNCH_DATE":"2020-01-07","PERIAPSIS":"546.106","SITE":"AFETR","TLE_LINE2":"2 44967  53.0543 225.3316 0001596  72.1824 287.9339 15.06400846101400","SEMIMAJOR_AXIS":"6925.346","ARG_OF_PERICENTER":"72.1824","EPOCH":"2021-11-04T22:33:47.359008","RCS_SIZE":"LARGE","ELEMENT_SET_NO":"999","MEAN_MOTION_DDOT":"0.0000000000000","OBJECT_NAME":"STARLINK-1089"},{"COUNTRY_CODE":"US","MEAN_MOTION_DOT":"0.00002042","MEAN_ANOMALY":"281.5572","NORAD_CAT_ID":"44968","INCLINATION":"53.0545","PERIOD":"95.592","ELEMENT_SET_NO":"999","MEAN_MOTION_DDOT":"0.0000000000000","OBJECT_NAME":"STARLINK-1090","RCS_SIZE":"LARGE","EPOCH":"2021-11-04T22:28:29.590176","ARG_OF_PERICENTER":"78.5588","SEMIMAJOR_AXIS":"6925.357","TLE_LINE2":"2 44968  53.0545 225.3427 0001519  78.5588 281.5572 15.06397224101402","SITE":"AFETR","PERIAPSIS":"546.170","LAUNCH_DATE":"2020-01-07","MEAN_MOTION":"15.06397224","APOAPSIS":"548.274","OBJECT_ID":"2020-001BG","DECAY_DATE":null,"MEAN_ELEMENT_THEORY":"SGP4","ECCENTRICITY":"0.00015190","GP_ID":"188953382","OBJECT_TYPE":"PAYLOAD","FILE":"3202404","EPHEMERIS_TYPE":"0","CENTER_NAME":"EARTH","REV_AT_EPOCH":"10140","TLE_LINE1":"1 44968U 20001BG  21308.93645359  .00002042  00000-0  15596-3 0  9999","TIME_SYSTEM":"UTC","REF_FRAME":"TEME","CLASSIFICATION_TYPE":"U","RA_OF_ASC_NODE":"225.3427","BSTAR":"0.00015596000000"}];
